*******************************************************************************
JPL/HORIZONS               3368 Duncombe (1985 QT)         2023-Sep-04 11:23:12
Rec #:    3368 (+COV) Soln.date: 2023-Aug-23_09:38:46   # obs: 5186 (1954-2023)
 
IAU76/J2000 helio. ecliptic osc. elements (au, days, deg., period=Julian yrs):
 
  EPOCH=  2457873.5 ! 2017-Apr-30.00 (TDB)         Residual RMS= .22711
   EC= .0889249315509073   QR= 3.086635411591744   TP= 2457673.5397580666
   OM= 4.110898554007699   W=  351.6043508359335   IN= 19.14725911273329
   A= 3.387904595881512    MA= 31.60464885397331   ADIST= 3.68917378017128
   PER= 6.23598            N= .158054664           ANGMOM= .031537196
   DAN= 3.08934            DDN= 3.68532            L= 356.1736186
   B= -2.7449554           MOID= 2.08269           TP= 2016-Oct-12.0397580666
 
Asteroid physical parameters (km, seconds, rotational period in hours):
   GM= n.a.                RAD= 16.6655            ROTPER= n.a.
   H= 11.09                G= .150                 B-V= n.a.
                           ALBEDO= .087            STYP= n.a.

ASTEROID comments: 
1: soln ref.= JPL#49, OCC=0
2: source=ORB
*******************************************************************************


*******************************************************************************
Ephemeris / API_USER Mon Sep  4 11:23:12 2023 Pasadena, USA      / Horizons
*******************************************************************************
Target body name: 3368 Duncombe (1985 QT)         {source: JPL#49}
Center body name: Solar System Barycenter (0)     {source: DE441}
Center-site name: BODY CENTER
*******************************************************************************
Start time      : A.D. 2023-Aug-12 00:00:00.0000 TDB
Stop  time      : A.D. 2023-Aug-13 00:00:00.0000 TDB
Step-size       : 2880 minutes
*******************************************************************************
Center geodetic : 0.0, 0.0, 0.0                   {E-lon(deg),Lat(deg),Alt(km)}
Center cylindric: 0.0, 0.0, 0.0                   {E-lon(deg),Dxy(km),Dz(km)}
Center radii    : (undefined)
Small perturbers: Yes                             {source: SB441-N16}
Output units    : KM-S
Calendar mode   : Mixed Julian/Gregorian
Output type     : GEOMETRIC cartesian states
Output format   : 2 (position and velocity)
Reference frame : Ecliptic of J2000.0
*******************************************************************************
Initial IAU76/J2000 heliocentric ecliptic osculating elements (au, days, deg.):
  EPOCH=  2457873.5 ! 2017-Apr-30.00 (TDB)         Residual RMS= .22711        
   EC= .0889249315509073   QR= 3.086635411591744   TP= 2457673.5397580666      
   OM= 4.110898554007699   W=  351.6043508359335   IN= 19.14725911273329       
  Equivalent ICRF heliocentric cartesian coordinates (au, au/d):
   X= 2.632991197953155E+00  Y= 1.301024776750861E+00  Z= 1.109828284339021E+00
  VX=-5.040366145286925E-03 VY= 6.332111433406307E-03 VZ= 5.971520804693939E-03
Asteroid physical parameters (km, seconds, rotational period in hours):        
   GM= n.a.                RAD= 16.6655            ROTPER= n.a.                
   H= 11.09                G= .150                 B-V= n.a.                   
                           ALBEDO= .087            STYP= n.a.                  
*******************************************************************************
JDTDB
   X     Y     Z
   VX    VY    VZ
*******************************************************************************
$$SOE
2460168.500000000 = A.D. 2023-Aug-12 00:00:00.0000 TDB 
 X = 3.758216842179915E+08 Y = 2.698469477433993E+08 Z = 8.422331677181205E+07
 VX=-9.563387213420752E+00 VY= 1.360783086824859E+01 VZ= 4.947737944837713E+00
$$EOE
*******************************************************************************
 
TIME

  Barycentric Dynamical Time ("TDB" or T_eph) output was requested. This
continuous coordinate time is equivalent to the relativistic proper time
of a clock at rest in a reference frame co-moving with the solar system
barycenter but outside the system's gravity well. It is the independent
variable in the solar system relativistic equations of motion.

  TDB runs at a uniform rate of one SI second per second and is independent
of irregularities in Earth's rotation.
 
CALENDAR SYSTEM

  Mixed calendar mode was active such that calendar dates after AD 1582-Oct-15
(if any) are in the modern Gregorian system. Dates prior to 1582-Oct-5 (if any)
are in the Julian calendar system, which is automatically extended for dates
prior to its adoption on 45-Jan-1 BC.  The Julian calendar is useful for
matching historical dates. The Gregorian calendar more accurately corresponds
to the Earth's orbital motion and seasons. A "Gregorian-only" calendar mode is
available if such physical events are the primary interest.

REFERENCE FRAME AND COORDINATES

  Ecliptic at the standard reference epoch

    Reference epoch: J2000.0
    X-Y plane: adopted Earth orbital plane at the reference epoch
               Note: IAU76 obliquity of 84381.448 arcseconds wrt ICRF X-Y plane
    X-axis   : ICRF
    Z-axis   : perpendicular to the X-Y plane in the directional (+ or -) sense
               of Earth's north pole at the reference epoch.

  Symbol meaning:

    JDTDB    Julian Day Number, Barycentric Dynamical Time
      X      X-component of position vector (km)
      Y      Y-component of position vector (km)
      Z      Z-component of position vector (km)
      VX     X-component of velocity vector (km/sec)                           
      VY     Y-component of velocity vector (km/sec)                           
      VZ     Z-component of velocity vector (km/sec)                           

ABERRATIONS AND CORRECTIONS

 Geometric state vectors have NO corrections or aberrations applied.

Computations by ...

    Solar System Dynamics Group, Horizons On-Line Ephemeris System
    4800 Oak Grove Drive, Jet Propulsion Laboratory
    Pasadena, CA  91109   USA

    General site: https://ssd.jpl.nasa.gov/
    Mailing list: https://ssd.jpl.nasa.gov/email_list.html
    System news : https://ssd.jpl.nasa.gov/horizons/news.html
    User Guide  : https://ssd.jpl.nasa.gov/horizons/manual.html
    Connect     : browser        https://ssd.jpl.nasa.gov/horizons/app.html#/x
                  API            https://ssd-api.jpl.nasa.gov/doc/horizons.html
                  command-line   telnet ssd.jpl.nasa.gov 6775
                  e-mail/batch   https://ssd.jpl.nasa.gov/ftp/ssd/hrzn_batch.txt
                  scripts        https://ssd.jpl.nasa.gov/ftp/ssd/SCRIPTS
    Author      : Jon.D.Giorgini@jpl.nasa.gov
*******************************************************************************
